#aV2020  5 21  0  0  0.00000000     288 DD+AD WGS84 FIT  NGA
## 2106 345600.00000000   300.00000000 58990 0.0000000000000
+   32     1  2  3  4  5  6  7  8  9 10 11 12 13 14 15 16 17
+         18 19 20 21 22 23 24 25 26 27 28 29 30 31 32  0  0
+          0  0  0  0  0  0  0  0  0  0  0  0  0  0  0  0  0
+          0  0  0  0  0  0  0  0  0  0  0  0  0  0  0  0  0
+          0  0  0  0  0  0  0  0  0  0  0  0  0  0  0  0  0
++         2  2  2  2  2  2  2  2  2  2  2  2  2  2  2  2  2
++         2  2  2  2  2  2  2  2  2  2  2  2  2  2  2  0  0
++         0  0  0  0  0  0  0  0  0  0  0  0  0  0  0  0  0
++         0  0  0  0  0  0  0  0  0  0  0  0  0  0  0  0  0
++         0  0  0  0  0  0  0  0  0  0  0  0  0  0  0  0  0
%c cc cc ccc ccc cccc cccc cccc cccc ccccc ccccc ccccc ccccc
%c cc cc ccc ccc cccc cccc cccc cccc ccccc ccccc ccccc ccccc
%f  0.0000000  0.000000000  0.00000000000  0.000000000000000
%f  0.0000000  0.000000000  0.00000000000  0.000000000000000
%i    0    0    0    0      0      0      0      0         0
%i    0    0    0    0      0      0      0      0         0
/*      NGA, ST. LOUIS,MO.                                  
/*   EPHEMERIS COMPUTED FROM 2 DAYS OF DATA                 
/*   EPOCHA v5 SMOOTHER                                     
/*   G1762 IERS2010 SATAF SATAPC                            
*  2020  5 21 23 20  0.00000000
P  1  14742.512933  14003.687703 -17489.480672   -383.449910                    
V  1 -21525.754327  -2053.327038 -19715.338604     -0.053322                    
P  2   8910.844319 -14264.734700  21185.141298   -459.679032                    
V  2  25353.094068   2522.939120  -9302.926353     -0.061494                    
P  3  12576.918668  23041.699216   4333.805643   -183.295741                    
V  3   -270.693495   6107.269079 -31155.772163     -0.124156                    
P  4   8013.933590  13699.884374  21304.475235    -92.406144                    
V  4 -17750.886206  20395.115585  -6471.606568     -0.049710                    
P  5    902.495726 -22420.763056  13918.014075    -13.119781                    
V  5   9610.264490  15433.091679  24198.850347     -0.007195                    
P  6  19979.408503  -7875.133674  15710.048712   -275.666842                    
V  6  19400.728256   4202.244907 -22598.434239     -0.066382                    
P  7  26043.544405   5936.354681   2810.012342   -286.476868                    
V  7  -3502.186931   2082.689735  31016.481783     -0.087052                    
P  8  -1975.415584  20918.254149 -16076.650411    -34.810309                    
V  8 -13872.842072  15239.949029  21765.372167     -0.013737                    
P  9  16465.329246   2557.776415  20639.356542   -221.760885                    
V  9 -15133.406562  21579.410955   9359.065011     -0.072293                    
P 10 -14961.975400   3028.283409 -21662.501454   -348.061724                    
V 10 -10305.727381 -25695.602528   3282.284425     -0.114998                    
P 11   4406.288658  15897.701625 -21315.162672   -270.741318                    
V 11 -24743.110852   8440.587101    891.955590      0.107019                    
P 12 -10383.329133 -24256.289643   3481.672382    115.214212                    
V 12    568.954684  -5116.634404 -31630.230616     -0.044076                    
P 13  10682.841228 -21549.376217 -11280.924312     11.873912                    
V 13  11655.172886  -8369.614596  27399.056211      0.030688                    
P 14 -18824.819835  18439.530868  -2014.226173    -11.379963                    
V 14   -197.190868  -4242.528856 -31729.658350      0.026375                    
P 15  -1332.202276 -20983.680779 -16317.698609   -229.616862                    
V 15  13020.618279 -15922.730305  20174.474710      0.026081                    
P 16  -1723.835278  23046.821870  12460.846166   -160.988385                    
V 16  -6905.022646 -14945.142717  26661.314691     -0.045565                    
P 17  20524.127432 -12582.558484 -10746.901489    268.455128                    
V 17  -7922.579650  12026.449451 -28159.967840      0.060240                    
P 18 -25697.914115  -6164.531417   2761.922905    196.983872                    
V 18   3902.598257  -2075.373197  31558.007647      0.117556                    
P 19  20093.502047 -16916.473694  -4162.667520   -155.666701                    
V 19  -1885.848420   4982.993396 -31658.800162      0.050749                    
P 20 -19018.294731  -8196.661933 -16826.977410    527.653221                    
V 20  -8683.566725 -19476.824589  19172.617676     -0.000690                    
P 21 -26320.731017  -2265.020328    529.797691      1.635979                    
V 21     15.267389  -3292.495039  31762.775804      0.049135                    
P 22   8623.714581  24704.038802  -4744.536269   -781.479524                    
V 22  -6062.603363  -3978.924477 -30199.947903      0.014073                    
P 23  18090.892319    -79.931654  19969.513904   -112.292096                    
V 23 -13709.637830  20270.030154  12350.838648      0.031232                    
P 24 -13420.464741 -14432.286336 -18165.041385    -13.325958                    
V 24  22678.844105     90.226993 -16646.778884     -0.004280                    
P 25 -15904.815064 -17815.654931  11655.992771      6.000916                    
V 25  -3678.438426 -14770.047980 -26777.987522      0.031876                    
P 26  -9095.615233  14864.588469  19946.989544    210.816504                    
V 26 -11620.955376 -22758.461873  11858.524549      0.071203                    
P 27 -11163.799357  22709.328285  -7612.860295   -299.949465                    
V 27  -7737.915054   6076.442022  30355.861568     -0.101310                    
P 28  14040.395523  -3934.630603 -21618.231098    715.428440                    
V 28   8229.895718  27616.289304    449.780079     -0.031856                    
P 29 -13575.032996  -6533.701301  21831.390744   -109.793736                    
V 29  18296.440417 -20870.897421   5097.109231     -0.088319                    
P 30  25307.740173  -1691.330851  -8200.786391   -225.146588                    
V 30   9758.805142   4820.488813  28763.768757     -0.081421                    
P 31 -19300.533637   8466.004797  16389.680434    -43.955081                    
V 31 -20166.719057  -5024.966292 -20653.453942     -0.025307                    
P 32 -19951.244658  13875.134813 -10459.348262    285.132802                    
V 32   6037.118505 -12336.365524 -27804.456497      0.074824                    
EOF
